norad_id,name,regime,epoch,line1,line2,inclination,eccentricity,mean_motion,raan,arg_pericenter,mean_anomaly
36395,SDO,IGO,12216.47535546,1 36395U 10005A   12216.47535546 -.00000076  00000-0  10000-3 0  5469\,2 36395 027.8302 173.1560 0002433 306.3846 262.2015 01.00270169  9266,27.8302,0.0002433,1.00270169,173.156,306.3846,262.2015
36395,SDO,IGO,12217.46741638,1 36395U 10005A   12217.46741638 -.00000071 +00000-0 +10000-3 0 05487\,2 36395 027.8302 173.1373 0002404 306.4943 260.2245 01.00270168009278,27.8302,0.0002404,1.00270168,173.1373,306.4943,260.2245
36395,SDO,IGO,12218.52189859,1 36395U 10005A   12218.52189859 -.00000065  00000-0  10000-3 0  5478\,2 36395 027.8301 173.1177 0002417 305.2870 282.0984 01.00270159  9282,27.8301,0.0002417,1.00270159,173.1177,305.287,282.0984
36395,SDO,IGO,12220.19958399,1 36395U 10005A   12220.19958399 -.00000056  00000-0  10000-3 0  5488\,2 36395 027.8300 173.0866 0002478 303.5520 169.4755 01.00270142  9304,27.83,0.0002478,1.00270142,173.0866,303.552,169.4755
36395,SDO,IGO,12220.38093858,1 36395U 10005A   12220.38093858 -.00000055 +00000-0 +10000-3 0 05499\,2 36395 027.8300 173.0833 0002453 304.0741 234.4224 01.00270149009303,27.83,0.0002453,1.00270149,173.0833,304.0741,234.4224
36395,SDO,IGO,12222.53547623,1 36395U 10005A   12222.53547623 -.00000052  00000-0  10000-3 0  5499\,2 36395 027.8299 173.0436 0002408 302.6119 293.6739 01.00270216  9327,27.8299,0.0002408,1.00270216,173.0436,302.6119,293.6739
36395,SDO,IGO,12223.58195080,1 36395U 10005A   12223.58195080 -.00000053  00000-0  10000-3 0  5504\,2 36395 027.8299 173.0243 0002439 301.7208 312.3405 01.00270191  9338,27.8299,0.0002439,1.00270191,173.0243,301.7208,312.3405
36395,SDO,IGO,12224.38092693,1 36395U 10005A   12224.38092693 -.00000056 +00000-0 +10000-3 0 05546\,2 36395 027.8298 173.0096 0002411 302.6001 239.8908 01.00270205009342,27.8298,0.0002411,1.00270205,173.0096,302.6001,239.8908
36395,SDO,IGO,12225.49743804,1 36395U 10005A   12225.49743804 -.00000060  00000-0  10000-3 0  5518\,2 36395 027.8298 172.9890 0002459 300.9964 284.5539 01.00270200  9356,27.8298,0.0002459,1.002702,172.989,300.9964,284.5539
36395,SDO,IGO,12226.44672889,1 36395U 10005A   12226.44672889 -.00000064 +00000-0 +10000-3 0 05523\,2 36395 027.8297 172.9714 0002507 301.1159 267.1278 01.00270220009363,27.8297,0.0002507,1.0027022,172.9714,301.1159,267.1278
36395,SDO,IGO,12227.36944535,1 36395U 10005A   12227.36944535 -.00000068  00000-0  10000-3 0  5529\,2 36395 027.8297 172.9544 0002284 305.4263 235.9145 01.00270223  9379,27.8297,0.0002284,1.00270223,172.9544,305.4263,235.9145
36395,SDO,IGO,12229.13058677,1 36395U 10005A   12229.13058677 -.00000072  00000-0  10000-3 0  5535\,2 36395 027.8294 172.9213 0002567 301.2630 155.8518 01.00270268  9390,27.8294,0.0002567,1.00270268,172.9213,301.263,155.8518
36395,SDO,IGO,12229.36186214,1 36395U 10005A   12229.36186214 -.00000072 +00000-0 +10000-3 0 05551\,2 36395 027.8293 172.9174 0002448 301.9786 238.6270 01.00270313009398,27.8293,0.0002448,1.00270313,172.9174,301.9786,238.627
36395,SDO,IGO,12230.40329566,1 36395U 10005A   12230.40329566 -.00000072  00000-0  10000-3 0  5546\,2 36395 027.8292 172.8985 0002268 303.5917 252.9687 01.00270322  9403,27.8292,0.0002268,1.00270322,172.8985,303.5917,252.9687
36395,SDO,IGO,12231.49160720,1 36395U 10005A   12231.49160720 -.00000070 +00000-0 +10000-3 0 05561\,2 36395 027.8292 172.8789 0002259 304.5147 284.9229 01.00270281009413,27.8292,0.0002259,1.00270281,172.8789,304.5147,284.9229
36395,SDO,IGO,12232.35036920,1 36395U 10005A   12232.35036920 -.00000067 +00000-0 +10000-3 0 05589\,2 36395 027.8292 172.8633 0002264 304.4001 235.0478 01.00270242009426,27.8292,0.0002264,1.00270242,172.8633,304.4001,235.0478
36395,SDO,IGO,12233.36415331,1 36395U 10005A   12233.36415331 -.00000064  00000-0  10000-3 0  5563\,2 36395 027.8293 172.8455 0002190 303.0300 242.3891 01.00270213  9433,27.8293,0.000219,1.00270213,172.8455,303.03,242.3891
36395,SDO,IGO,12235.33886868,1 36395U 10005A   12235.33886868 -.00000063  00000-0  10000-3 0  5579\,2 36395 027.8298 172.8100 0002309 302.1197 236.1629 01.00270079  9453,27.8298,0.0002309,1.00270079,172.81,302.1197,236.1629
36395,SDO,IGO,12236.34724933,1 36395U 10005A   12236.34724933 -.00000065  00000-0  10000-3 0  5588\,2 36395 027.8298 172.7916 0002305 305.6729 236.6280 01.00269971  9460,27.8298,0.0002305,1.00269971,172.7916,305.6729,236.628
36395,SDO,IGO,12237.36990721,1 36395U 10005A   12237.36990721 -.00000071  00000-0  10000-3 0  5599\,2 36395 027.8298 172.7730 0002320 305.9158 245.5581 01.00269878  9470,27.8298,0.000232,1.00269878,172.773,305.9158,245.5581
36395,SDO,IGO,12238.42818095,1 36395U 10005A   12238.42818095 -.00000078  00000-0  10000-3 0  5609\,2 36395 027.8298 172.7538 0002244 310.4023 263.0998 01.00269773  9485,27.8298,0.0002244,1.00269773,172.7538,310.4023,263.0998
36395,SDO,IGO,12239.47822414,1 36395U 10005A   12239.47822414 -.00000086  00000-0  10000-3 0  5615\,2 36395 027.8296 172.7345 0002098 315.4494 277.1085 01.00269663  9495,27.8296,0.0002098,1.00269663,172.7345,315.4494,277.1085
36395,SDO,IGO,12240.46331140,1 36395U 10005A   12240.46331140 -.00000093 +00000-0 +10000-3 0 05659\,2 36395 027.8293 172.7162 0002056 316.1790 271.9886 01.00269588009509,27.8293,0.0002056,1.00269588,172.7162,316.179,271.9886
36395,SDO,IGO,12241.41753889,1 36395U 10005A   12241.41753889 -.00000097  00000-0  10000-3 0  5624\,2 36395 027.8291 172.6984 0002221 315.2206 257.4180 01.00269502  9517,27.8291,0.0002221,1.00269502,172.6984,315.2206,257.418
36395,SDO,IGO,12242.31207160,1 36395U 10005A   12242.31207160 -.00000098 +00000-0 +10000-3 0 05654\,2 36395 027.8289 172.6819 0002170 316.3251 219.2324 01.00269410009521,27.8289,0.000217,1.0026941,172.6819,316.3251,219.2324
36395,SDO,IGO,12243.12170064,1 36395U 10005A   12243.12170064 -.00000097  00000-0  10000-3 0  5633\,2 36395 027.8286 172.6669 0001931 319.8614 147.9637 01.00269347  9530,27.8286,0.0001931,1.00269347,172.6669,319.8614,147.9637
36395,SDO,IGO,12243.61864123,1 36395U 10005A   12243.61864123 -.00000095 +00000-0 +10000-3 0 05653\,2 36395 027.8285 172.6577 0001951 320.8187 326.3984 01.00269308009531,27.8285,0.0001951,1.00269308,172.6577,320.8187,326.3984
36395,SDO,IGO,12244.24873885,1 36395U 10005A   12244.24873885 -.00000093  00000-0  10000-3 0  5645\,2 36395 027.8280 172.6463 0001859 319.5717 195.1046 01.00269221  9547,27.828,0.0001859,1.00269221,172.6463,319.5717,195.1046
36395,SDO,IGO,12244.33420863,1 36395U 10005A   12244.33420863 -.00000092 +00000-0 +10000-3 0 05682\,2 36395 027.8280 172.6445 0001862 319.2406 226.2897 01.00269211009542,27.828,0.0001862,1.00269211,172.6445,319.2406,226.2897
36395,SDO,IGO,12245.43732072,1 36395U 10005A   12245.43732072 -.00000085  00000-0  10000-3 0  5651\,2 36395 027.8278 172.6240 0002044 315.2578 268.4897 01.00269098  9553,27.8278,0.0002044,1.00269098,172.624,315.2578,268.4897
36395,SDO,IGO,12246.46214690,1 36395U 10005A   12246.46214690 -.00000079 +00000-0 +10000-3 0 05660\,2 36395 027.8277 172.6050 0002012 313.6253 280.0781 01.00269064009564,27.8277,0.0002012,1.00269064,172.605,313.6253,280.0781
36395,SDO,IGO,12247.39806337,1 36395U 10005A   12247.39806337 -.00000073 +00000-0 +10000-3 0 05695\,2 36395 027.8276 172.5876 0001964 311.4096 260.1540 01.00269035009575,27.8276,0.0001964,1.00269035,172.5876,311.4096,260.154
36395,SDO,IGO,12248.47618310,1 36395U 10005A   12248.47618310 -.00000069 +00000-0 +10000-3 0 05670\,2 36395 027.8275 172.5676 0001935 309.0857 291.6722 01.00268994009583,27.8275,0.0001935,1.00268994,172.5676,309.0857,291.6722
36395,SDO,IGO,12249.23939705,1 36395U 10005A   12249.23939705 -.00000067 +00000-0 +10000-3 0 05688\,2 36395 027.8275 172.5534 0001954 310.5314 205.7420 01.00268983009592,27.8275,0.0001954,1.00268983,172.5534,310.5314,205.742
36395,SDO,IGO,12250.44516221,1 36395U 10005A   12250.44516221 -.00000067 +00000-0 +10000-3 0 05698\,2 36395 027.8272 172.5310 0001966 310.0331 281.5149 01.00268982009609,27.8272,0.0001966,1.00268982,172.531,310.0331,281.5149
36395,SDO,IGO,12251.37342130,1 36395U 10005A   12251.37342130 -.00000068 +00000-0 +10000-3 0 05722\,2 36395 027.8272 172.5138 0001964 312.4852 254.1595 01.00268999009619,27.8272,0.0001964,1.00268999,172.5138,312.4852,254.1595
36395,SDO,IGO,12253.37402209,1 36395U 10005A   12253.37402209 -.00000074 +00000-0 +10000-3 0 05703\,2 36395 027.8270 172.4766 0001730 316.2380 252.6096 01.00269007009634,27.827,0.000173,1.00269007,172.4766,316.238,252.6096
36395,SDO,IGO,12255.38819669,1 36395U 10005A   12255.38819669 -.00000080  00000-0  10000-3 0  5716\,2 36395 027.8266 172.4390 0001611 314.4744 261.4799 01.00269050  9652,27.8266,0.0001611,1.0026905,172.439,314.4744,261.4799
36395,SDO,IGO,12256.36086559,1 36395U 10005A   12256.36086559 -.00000080 +00000-0 +10000-3 0 05720\,2 36395 027.8265 172.4209 0001617 314.5128 252.5699 01.00269055009669,27.8265,0.0001617,1.00269055,172.4209,314.5128,252.5699
36395,SDO,IGO,12257.46956689,1 36395U 10005A   12257.46956689 -.00000080  00000-0  10000-3 0  5722\,2 36395 027.8263 172.4003 0001598 316.4624 290.8546 01.00269050  9671,27.8263,0.0001598,1.0026905,172.4003,316.4624,290.8546
36395,SDO,IGO,12258.45478803,1 36395U 10005A   12258.45478803 -.00000077 +00000-0 +10000-3 0 05758\,2 36395 027.8260 172.3818 0001602 315.8572 287.1188 01.00269037009689,27.826,0.0001602,1.00269037,172.3818,315.8572,287.1188
36395,SDO,IGO,12259.22379053,1 36395U 10005A   12259.22379053 -.00000074  00000-0  10000-3 0  5736\,2 36395 027.8261 172.3677 0001620 316.6315 203.9496 01.00269026  9694,27.8261,0.000162,1.00269026,172.3677,316.6315,203.9496
36395,SDO,IGO,12259.40055149,1 36395U 10005A   12259.40055149 -.00000074 +00000-0 +10000-3 0 05755\,2 36395 027.8260 172.3646 0001620 316.7078 267.6826 01.00269018009691,27.826,0.000162,1.00269018,172.3646,316.7078,267.6826
